start=new Date('2023-03-27T00:00:00.000Z').valueOf();
sats=[{"REV_AT_EPOCH":"5789","GP_ID":"228919267","RCS_SIZE":"LARGE","EPOCH":"2023-03-26T17:06:19.238688","DECAY_DATE":null,"SITE":"AFETR","MEAN_ANOMALY":"253.2813","OBJECT_ID":"2022-029T","MEAN_MOTION_DOT":"0.00032997","EPHEMERIS_TYPE":"0","CENTER_NAME":"EARTH","MEAN_ELEMENT_THEORY":"SGP4","PERIOD":"95.437","OBJECT_NAME":"STARLINK-3706","TLE_LINE1":"1 52105U 22029T   23085.71272267  .00032997  00000-0  20810-2 0  9993","ARG_OF_PERICENTER":"106.8305","OBJECT_TYPE":"PAYLOAD","TIME_SYSTEM":"UTC","CLASSIFICATION_TYPE":"U","FILE":"3871964","PERIAPSIS":"538.915","INCLINATION":"53.2164","NORAD_CAT_ID":"52105","MEAN_MOTION_DDOT":"0.0000000000000","COUNTRY_CODE":"US","LAUNCH_DATE":"2022-03-19","TLE_LINE2":"2 52105  53.2164 242.8360 0001147 106.8305 253.2813 15.08852008 57897","ELEMENT_SET_NO":"999","MEAN_MOTION":"15.08852008","ECCENTRICITY":"0.00011470","RA_OF_ASC_NODE":"242.8360","BSTAR":"0.00208100000000","APOAPSIS":"540.502","REF_FRAME":"TEME","SEMIMAJOR_AXIS":"6917.844"},{"CENTER_NAME":"EARTH","EPHEMERIS_TYPE":"0","MEAN_ELEMENT_THEORY":"SGP4","PERIOD":"95.436","OBJECT_ID":"2022-029U","MEAN_MOTION_DOT":"0.00013707","RCS_SIZE":"LARGE","DECAY_DATE":null,"EPOCH":"2023-03-26T17:35:25.297152","SITE":"AFETR","MEAN_ANOMALY":"291.5631","REV_AT_EPOCH":"5776","GP_ID":"228920018","RA_OF_ASC_NODE":"252.7476","ECCENTRICITY":"0.00010960","BSTAR":"0.00087709000000","APOAPSIS":"540.433","SEMIMAJOR_AXIS":"6917.810","REF_FRAME":"TEME","LAUNCH_DATE":"2022-03-19","COUNTRY_CODE":"US","MEAN_MOTION_DDOT":"0.0000000000000","MEAN_MOTION":"15.08863037","TLE_LINE2":"2 52106  53.2151 252.7476 0001096  68.5477 291.5631 15.08863037 57762","ELEMENT_SET_NO":"999","FILE":"3871964","PERIAPSIS":"538.917","INCLINATION":"53.2151","NORAD_CAT_ID":"52106","OBJECT_NAME":"STARLINK-3670","TLE_LINE1":"1 52106U 22029U   23085.73293168  .00013707  00000-0  87709-3 0  9998","ARG_OF_PERICENTER":"68.5477","OBJECT_TYPE":"PAYLOAD","CLASSIFICATION_TYPE":"U","TIME_SYSTEM":"UTC"},{"RCS_SIZE":"LARGE","DECAY_DATE":null,"EPOCH":"2023-03-26T20:10:25.454496","SITE":"AFETR","MEAN_ANOMALY":"251.8290","REV_AT_EPOCH":"5791","GP_ID":"228918267","CENTER_NAME":"EARTH","EPHEMERIS_TYPE":"0","MEAN_ELEMENT_THEORY":"SGP4","PERIOD":"95.435","OBJECT_ID":"2022-029V","MEAN_MOTION_DOT":"0.00036207","FILE":"3871964","PERIAPSIS":"538.674","INCLINATION":"53.2158","NORAD_CAT_ID":"52107","TLE_LINE1":"1 52107U 22029V   23085.84057239  .00036207  00000-0  22788-2 0  9993","OBJECT_NAME":"STARLINK-3658","ARG_OF_PERICENTER":"108.2851","OBJECT_TYPE":"PAYLOAD","CLASSIFICATION_TYPE":"U","TIME_SYSTEM":"UTC","RA_OF_ASC_NODE":"242.2631","ECCENTRICITY":"0.00013670","BSTAR":"0.00227880000000","APOAPSIS":"540.566","SEMIMAJOR_AXIS":"6917.755","REF_FRAME":"TEME","LAUNCH_DATE":"2022-03-19","COUNTRY_CODE":"US","MEAN_MOTION_DDOT":"0.0000000000000","TLE_LINE2":"2 52107  53.2158 242.2631 0001367 108.2851 251.8290 15.08881016 57910","MEAN_MOTION":"15.08881016","ELEMENT_SET_NO":"999"},{"INCLINATION":"53.2156","FILE":"3871964","PERIAPSIS":"538.757","NORAD_CAT_ID":"52108","OBJECT_TYPE":"PAYLOAD","ARG_OF_PERICENTER":"73.5291","TLE_LINE1":"1 52108U 22029W   23085.71545777  .00009657  00000-0  62415-3 0  9990","OBJECT_NAME":"STARLINK-3698","CLASSIFICATION_TYPE":"U","TIME_SYSTEM":"UTC","BSTAR":"0.00062415000000","ECCENTRICITY":"0.00014650","RA_OF_ASC_NODE":"242.8257","SEMIMAJOR_AXIS":"6917.905","REF_FRAME":"TEME","APOAPSIS":"540.784","MEAN_MOTION":"15.08831899","TLE_LINE2":"2 52108  53.2156 242.8257 0001465  73.5291 286.5862 15.08831899 57891","ELEMENT_SET_NO":"999","MEAN_MOTION_DDOT":"0.0000000000000","COUNTRY_CODE":"US","LAUNCH_DATE":"2022-03-19","RCS_SIZE":"LARGE","MEAN_ANOMALY":"286.5862","SITE":"AFETR","EPOCH":"2023-03-26T17:10:15.551328","DECAY_DATE":null,"REV_AT_EPOCH":"5789","GP_ID":"228918517","EPHEMERIS_TYPE":"0","CENTER_NAME":"EARTH","PERIOD":"95.438","MEAN_ELEMENT_THEORY":"SGP4","OBJECT_ID":"2022-029W","MEAN_MOTION_DOT":"0.00009657"},{"COUNTRY_CODE":"US","MEAN_MOTION_DDOT":"0.0000000000000","LAUNCH_DATE":"2022-03-19","MEAN_MOTION":"15.08835048","TLE_LINE2":"2 52110  53.2165 242.8388 0001077  92.2984 267.8132 15.08835048 57897","ELEMENT_SET_NO":"999","APOAPSIS":"540.506","SEMIMAJOR_AXIS":"6917.896","REF_FRAME":"TEME","ECCENTRICITY":"0.00010770","RA_OF_ASC_NODE":"242.8388","BSTAR":"0.00177090000000","TIME_SYSTEM":"UTC","CLASSIFICATION_TYPE":"U","OBJECT_NAME":"STARLINK-3687","TLE_LINE1":"1 52110U 22029Y   23085.71178018  .00028004  00000-0  17709-2 0  9995","ARG_OF_PERICENTER":"92.2984","OBJECT_TYPE":"PAYLOAD","NORAD_CAT_ID":"52110","FILE":"3871964","PERIAPSIS":"539.015","INCLINATION":"53.2165","MEAN_MOTION_DOT":"0.00028004","OBJECT_ID":"2022-029Y","MEAN_ELEMENT_THEORY":"SGP4","PERIOD":"95.438","EPHEMERIS_TYPE":"0","CENTER_NAME":"EARTH","GP_ID":"228919768","REV_AT_EPOCH":"5789","EPOCH":"2023-03-26T17:04:57.807552","DECAY_DATE":null,"SITE":"AFETR","MEAN_ANOMALY":"267.8132","RCS_SIZE":"LARGE"},{"MEAN_MOTION_DOT":"0.00011227","OBJECT_ID":"2022-029Z","PERIOD":"95.437","MEAN_ELEMENT_THEORY":"SGP4","EPHEMERIS_TYPE":"0","CENTER_NAME":"EARTH","GP_ID":"228919518","REV_AT_EPOCH":"5789","SITE":"AFETR","MEAN_ANOMALY":"270.4908","EPOCH":"2023-03-26T16:43:45.405120","DECAY_DATE":null,"RCS_SIZE":"LARGE","TLE_LINE2":"2 52111  53.2131 242.9109 0000660  89.6159 270.4908 15.08845423 57893","ELEMENT_SET_NO":"999","MEAN_MOTION":"15.08845423","MEAN_MOTION_DDOT":"0.0000000000000","COUNTRY_CODE":"US","LAUNCH_DATE":"2022-03-19","SEMIMAJOR_AXIS":"6917.864","REF_FRAME":"TEME","APOAPSIS":"540.185","BSTAR":"0.00072224000000","ECCENTRICITY":"0.00006600","RA_OF_ASC_NODE":"242.9109","CLASSIFICATION_TYPE":"U","TIME_SYSTEM":"UTC","OBJECT_TYPE":"PAYLOAD","ARG_OF_PERICENTER":"89.6159","TLE_LINE1":"1 52111U 22029Z   23085.69705330  .00011227  00000-0  72224-3 0  9999","OBJECT_NAME":"STARLINK-3708","NORAD_CAT_ID":"52111","INCLINATION":"53.2131","PERIAPSIS":"539.272","FILE":"3871964"},{"LAUNCH_DATE":"2022-03-19","MEAN_MOTION_DDOT":"0.0000000000000","COUNTRY_CODE":"US","ELEMENT_SET_NO":"999","TLE_LINE2":"2 52112  53.2158 241.9796 0001331 102.2960 257.8181 15.08823641 57926","MEAN_MOTION":"15.08823641","APOAPSIS":"540.716","REF_FRAME":"TEME","SEMIMAJOR_AXIS":"6917.930","RA_OF_ASC_NODE":"241.9796","ECCENTRICITY":"0.00013310","BSTAR":"-0.00026744000000","CLASSIFICATION_TYPE":"U","TIME_SYSTEM":"UTC","OBJECT_NAME":"STARLINK-3734","TLE_LINE1":"1 52112U 22029AA  23085.90311459 -.00004540  00000-0 -26744-3 0  9997","OBJECT_TYPE":"PAYLOAD","ARG_OF_PERICENTER":"102.2960","NORAD_CAT_ID":"52112","FILE":"3871964","PERIAPSIS":"538.875","INCLINATION":"53.2158","MEAN_MOTION_DOT":"-0.00004540","OBJECT_ID":"2022-029AA","MEAN_ELEMENT_THEORY":"SGP4","PERIOD":"95.439","CENTER_NAME":"EARTH","EPHEMERIS_TYPE":"0","GP_ID":"228918768","REV_AT_EPOCH":"5792","DECAY_DATE":null,"EPOCH":"2023-03-26T21:40:29.100576","SITE":"AFETR","MEAN_ANOMALY":"257.8181","RCS_SIZE":"LARGE"},{"PERIOD":"95.437","MEAN_ELEMENT_THEORY":"SGP4","EPHEMERIS_TYPE":"0","CENTER_NAME":"EARTH","MEAN_MOTION_DOT":"0.00008032","OBJECT_ID":"2022-029AB","SITE":"AFETR","MEAN_ANOMALY":"306.0293","EPOCH":"2023-03-26T18:08:32.654400","DECAY_DATE":null,"RCS_SIZE":"LARGE","GP_ID":"228919018","REV_AT_EPOCH":"5790","REF_FRAME":"TEME","SEMIMAJOR_AXIS":"6917.867","APOAPSIS":"540.587","BSTAR":"0.00052207000000","ECCENTRICITY":"0.00012350","RA_OF_ASC_NODE":"242.6443","TLE_LINE2":"2 52113  53.2149 242.6443 0001235  54.0813 306.0293 15.08844306 57908","MEAN_MOTION":"15.08844306","ELEMENT_SET_NO":"999","MEAN_MOTION_DDOT":"0.0000000000000","COUNTRY_CODE":"US","LAUNCH_DATE":"2022-03-19","NORAD_CAT_ID":"52113","INCLINATION":"53.2149","FILE":"3871964","PERIAPSIS":"538.878","TIME_SYSTEM":"UTC","CLASSIFICATION_TYPE":"U","OBJECT_TYPE":"PAYLOAD","ARG_OF_PERICENTER":"54.0813","TLE_LINE1":"1 52113U 22029AB  23085.75593350  .00008032  00000-0  52207-3 0  9994","OBJECT_NAME":"STARLINK-3736"},{"MEAN_MOTION_DOT":"0.00032558","OBJECT_ID":"2022-029AC","MEAN_ELEMENT_THEORY":"SGP4","PERIOD":"95.437","EPHEMERIS_TYPE":"0","CENTER_NAME":"EARTH","GP_ID":"228919268","REV_AT_EPOCH":"5789","EPOCH":"2023-03-26T16:49:04.293696","DECAY_DATE":null,"SITE":"AFETR","MEAN_ANOMALY":"254.1242","RCS_SIZE":"LARGE","COUNTRY_CODE":"US","MEAN_MOTION_DDOT":"0.0000000000000","LAUNCH_DATE":"2022-03-19","MEAN_MOTION":"15.08841920","TLE_LINE2":"2 52114  53.2137 242.8905 0000992 105.9859 254.1242 15.08841920 57890","ELEMENT_SET_NO":"999","APOAPSIS":"540.426","SEMIMAJOR_AXIS":"6917.875","REF_FRAME":"TEME","ECCENTRICITY":"0.00009920","RA_OF_ASC_NODE":"242.8905","BSTAR":"0.00205420000000","CLASSIFICATION_TYPE":"U","TIME_SYSTEM":"UTC","TLE_LINE1":"1 52114U 22029AC  23085.70074414  .00032558  00000-0  20542-2 0  9991","OBJECT_NAME":"STARLINK-3737","OBJECT_TYPE":"PAYLOAD","ARG_OF_PERICENTER":"105.9859","NORAD_CAT_ID":"52114","FILE":"3871964","PERIAPSIS":"539.053","INCLINATION":"53.2137"},{"RCS_SIZE":"LARGE","EPOCH":"2023-03-26T17:57:56.244096","DECAY_DATE":null,"SITE":"AFETR","MEAN_ANOMALY":"302.7160","REV_AT_EPOCH":"5790","GP_ID":"228920019","EPHEMERIS_TYPE":"0","CENTER_NAME":"EARTH","MEAN_ELEMENT_THEORY":"SGP4","PERIOD":"95.437","OBJECT_ID":"2022-029AD","MEAN_MOTION_DOT":"0.00026548","FILE":"3871964","PERIAPSIS":"538.797","INCLINATION":"53.2137","NORAD_CAT_ID":"52115","TLE_LINE1":"1 52115U 22029AD  23085.74856764  .00026548  00000-0  16798-2 0  9992","OBJECT_NAME":"STARLINK-3685","OBJECT_TYPE":"PAYLOAD","ARG_OF_PERICENTER":"57.3964","TIME_SYSTEM":"UTC","CLASSIFICATION_TYPE":"U","ECCENTRICITY":"0.00013650","RA_OF_ASC_NODE":"242.6774","BSTAR":"0.00167980000000","APOAPSIS":"540.685","SEMIMAJOR_AXIS":"6917.876","REF_FRAME":"TEME","COUNTRY_CODE":"US","MEAN_MOTION_DDOT":"0.0000000000000","LAUNCH_DATE":"2022-03-19","TLE_LINE2":"2 52115  53.2137 242.6774 0001365  57.3964 302.7160 15.08841459 57903","MEAN_MOTION":"15.08841459","ELEMENT_SET_NO":"999"}];
